[{"OBJECT_NAME":"STARLINK-34061","OBJECT_ID":"2025-094N","EPOCH":"2026-03-09T20:37:38.993376","MEAN_MOTION":14.98336916,"ECCENTRICITY":0.0003093,"INCLINATION":70.0018,"RA_OF_ASC_NODE":234.2253,"ARG_OF_PERICENTER":273.3985,"MEAN_ANOMALY":86.6821,"EPHEMERIS_TYPE":0,"CLASSIFICATION_TYPE":"U","NORAD_CAT_ID":63876,"ELEMENT_SET_NO":999,"REV_AT_EPOCH":4722,"BSTAR":0.00036145,"MEAN_MOTION_DOT":4.223e-5,"MEAN_MOTION_DDOT":0},{"OBJECT_NAME":"UNKNOWN","OBJECT_ID":"","EPOCH":"2026-03-08T12:59:39.172704","MEAN_MOTION":15.0131728,"ECCENTRICITY":0.00204305,"INCLINATION":86.3534,"RA_OF_ASC_NODE":358.469,"ARG_OF_PERICENTER":121.5673,"MEAN_ANOMALY":238.7558,"EPHEMERIS_TYPE":0,"CLASSIFICATION_TYPE":"U","NORAD_CAT_ID":270086,"ELEMENT_SET_NO":999,"REV_AT_EPOCH":9441,"BSTAR":0.0053525659,"MEAN_MOTION_DOT":0.00069778,"MEAN_MOTION_DDOT":0}]
